1 37673U 11024A   14006.10365574  .00001127  00000-0  18597-3 0  9990
2 37673 098.0124 015.6322 0001234 091.1783 311.0164 14.72337858138387
